NORAD_CAT_ID,OBJECT_NAME,OBJECT_TYPE,EPOCH,MEAN_MOTION,ECCENTRICITY,INCLINATION,RA_OF_ASC_NODE,ARG_OF_PERICENTER,MEAN_ANOMALY,BSTAR,MEAN_MOTION_DOT,MEAN_MOTION_DDOT,TLE_LINE0,TLE_LINE1,TLE_LINE2,SEMIMAJOR_AXIS,PERIOD,APOGEE,PERIGEE,DECAYED
49458.0,STARLINK-3156,PAYLOAD,2023-06-21 17:16:42,15.08837472,8.65e-05,53.2183,352.247,64.0287,296.0794,-6.7372e-05,-1.36e-05,0.0,0 STARLINK-3156,1 49458U 21104BC  23172.71993256 -.00001360  00000-0 -67372-4 0  9996,2 49458  53.2183 352.2470 0000865  64.0287 296.0794 15.08837472 90105,6917.888,95.438,540.352,539.155,0.0
49458.0,STARLINK-3156,PAYLOAD,2023-06-21 22:02:51,15.08847141,9.23e-05,53.2171,351.3564,68.4693,291.6398,-1.2497e-05,-4.87e-06,0.0,0 STARLINK-3156,1 49458U 21104BC  23172.91864888 -.00000487  00000-0 -12497-4 0  9993,2 49458  53.2171 351.3564 0000923  68.4693 291.6398 15.08847141 90138,6917.859,95.437,540.362,539.085,0.0
49458.0,STARLINK-3156,PAYLOAD,2023-06-22 10:45:57,15.08833465,9.35e-05,53.2172,348.9765,82.2704,277.8394,4.2727e-05,3.92e-06,0.0,0 STARLINK-3156,1 49458U 21104BC  23173.44857741  .00000392  00000-0  42727-4 0  9994,2 49458  53.2172 348.9765 0000935  82.2704 277.8394 15.08833465 90219,6917.9,95.438,540.412,539.119,0.0
49458.0,STARLINK-3156,PAYLOAD,2023-06-22 18:42:52,15.08844491,8.09e-05,53.2169,347.4912,79.0713,281.037,0.00013368,1.841e-05,0.0,0 STARLINK-3156,1 49458U 21104BC  23173.77977175  .00001841  00000-0  13368-3 0  9992,2 49458  53.2169 347.4912 0000809  79.0713 281.0370 15.08844491 90264,6917.867,95.437,540.291,539.172,0.0
49458.0,STARLINK-3156,PAYLOAD,2023-06-23 10:36:44,15.08838723,8.42e-05,53.2165,344.5182,85.5569,274.5519,0.00013494,1.86e-05,0.0,0 STARLINK-3156,1 49458U 21104BC  23174.44217619  .00001860  00000-0  13494-3 0  9998,2 49458  53.2165 344.5182 0000842  85.5569 274.5519 15.08838723 90369,6917.884,95.438,540.332,539.167,0.0
49458.0,STARLINK-3156,PAYLOAD,2023-06-23 18:33:39,15.08847212,8.06e-05,53.2162,343.0315,92.4827,267.6257,0.00015836,2.234e-05,0.0,0 STARLINK-3156,1 49458U 21104BC  23174.77337158  .00002234  00000-0  15836-3 0  9993,2 49458  53.2162 343.0315 0000806  92.4827 267.6257 15.08847212 90413,6917.858,95.437,540.281,539.166,0.0
49458.0,STARLINK-3156,PAYLOAD,2023-06-24 04:05:58,15.08843324,6.28e-05,53.2173,341.2475,97.5598,262.5466,8.5061e-05,1.067e-05,0.0,0 STARLINK-3156,1 49458U 21104BC  23175.17081288  .00001067  00000-0  85061-4 0  9999,2 49458  53.2173 341.2475 0000628  97.5598 262.5466 15.08843324 90477,6917.87,95.437,540.17,539.301,0.0
49458.0,STARLINK-3156,PAYLOAD,2023-06-24 16:49:03,15.08836752,8.22e-05,53.2157,338.8691,88.1606,271.948,2.2414e-05,6.9e-07,0.0,0 STARLINK-3156,1 49458U 21104BC  23175.70073869  .00000069  00000-0  22414-4 0  9998,2 49458  53.2157 338.8691 0000822  88.1606 271.9480 15.08836752 90559,6917.89,95.438,540.324,539.187,0.0
49458.0,STARLINK-3156,PAYLOAD,2023-06-25 03:56:45,15.088438,7.45e-05,53.2165,336.7874,93.241,266.8667,0.00014304,1.99e-05,0.0,0 STARLINK-3156,1 49458U 21104BC  23176.16441443  .00001990  00000-0  14304-3 0  9998,2 49458  53.2165 336.7874 0000745  93.2410 266.8667 15.08843800 90622,6917.869,95.437,540.249,539.218,0.0
49458.0,STARLINK-3156,PAYLOAD,2023-06-25 16:39:48,15.08864538,7.47e-05,53.2172,334.407,97.4457,262.662,0.00024496,3.616e-05,0.0,0 STARLINK-3156,1 49458U 21104BC  23176.69431504  .00003616  00000-0  24496-3 0  9993,2 49458  53.2172 334.4070 0000747  97.4457 262.6620 15.08864538 90705,6917.805,95.436,540.187,539.154,0.0
49458.0,STARLINK-3156,PAYLOAD,2023-06-26 03:47:31,15.08847004,9.41e-05,53.2158,332.3275,85.3692,274.7408,8.7342e-05,1.103e-05,0.0,0 STARLINK-3156,1 49458U 21104BC  23177.15800718  .00001103  00000-0  87342-4 0  9991,2 49458  53.2158 332.3275 0000941  85.3692 274.7408 15.08847004 90770,6917.859,95.437,540.375,539.073,0.0
49458.0,STARLINK-3156,PAYLOAD,2023-06-26 16:30:37,15.08824354,6.67e-05,53.2161,329.9469,108.0626,252.0439,-0.00027749,-4.699e-05,0.0,0 STARLINK-3156,1 49458U 21104BC  23177.68793687 -.00004699  00000-0 -27749-3 0  9994,2 49458  53.2161 329.9469 0000667 108.0626 252.0439 15.08824354 90851,6917.928,95.439,540.255,539.332,0.0
49458.0,STARLINK-3156,PAYLOAD,2023-06-26 18:06:00,15.08831423,8.49e-05,53.2162,329.6489,107.6072,252.5013,-0.00014783,-2.639e-05,0.0,0 STARLINK-3156,1 49458U 21104BC  23177.75417532 -.00002639  00000-0 -14783-3 0  9990,2 49458  53.2162 329.6489 0000849 107.6072 252.5013 15.08831423 90862,6917.907,95.438,540.359,539.184,0.0
49458.0,STARLINK-3156,PAYLOAD,2023-06-27 17:56:48,15.08848971,7.8e-05,53.2165,325.189,108.5707,251.537,0.0011551,0.00018148,0.0,0 STARLINK-3156,1 49458U 21104BC  23178.74778023  .00018148  00000-0  11551-2 0  9994,2 49458  53.2165 325.1890 0000780 108.5707 251.5370 15.08848971 91010,6917.853,95.437,540.258,539.178,0.0
49458.0,STARLINK-3156,PAYLOAD,2023-06-28 09:50:39,15.08841531,8.22e-05,53.2164,322.2151,106.3031,253.8051,0.00031266,4.692e-05,0.0,0 STARLINK-3156,1 49458U 21104BC  23179.41018201  .00004692  00000-0  31266-3 0  9999,2 49458  53.2164 322.2151 0000822 106.3031 253.8051 15.08841531 91117,6917.876,95.437,540.309,539.172,0.0
49458.0,STARLINK-3156,PAYLOAD,2023-06-29 17:38:22,15.08845149,8.74e-05,53.2172,316.267,110.4638,249.6448,0.00012805,1.751e-05,0.0,0 STARLINK-3156,1 49458U 21104BC  23180.73498023  .00001751  00000-0  12805-3 0  9991,2 49458  53.2172 316.2670 0000874 110.4638 249.6448 15.08845149 91315,6917.865,95.437,540.334,539.125,0.0
49458.0,STARLINK-3156,PAYLOAD,2023-06-30 15:53:46,15.0883739,7.73e-05,53.2183,312.1067,93.9093,266.1988,7.0821e-05,8.4e-06,0.0,0 STARLINK-3156,1 49458U 21104BC  23181.66234590  .00000840  00000-0  70821-4 0  9992,2 49458  53.2183 312.1067 0000773  93.9093 266.1988 15.08837390 91457,6917.888,95.438,540.288,539.219,0.0
49458.0,STARLINK-3156,PAYLOAD,2023-07-01 01:26:06,15.08829741,6.29e-05,53.2178,310.3203,95.1638,264.9426,4.0401e-06,-2.23e-06,0.0,0 STARLINK-3156,1 49458U 21104BC  23182.05979250 -.00000223  00000-0  40401-5 0  9993,2 49458  53.2178 310.3203 0000629  95.1638 264.9426 15.08829741 91513,6917.912,95.438,540.212,539.342,0.0
49458.0,STARLINK-3156,PAYLOAD,2023-07-01 07:47:39,15.08827615,0.0001011,53.217,309.1324,91.1686,268.9422,-8.7663e-05,-1.682e-05,0.0,0 STARLINK-3156,1 49458U 21104BC  23182.32476074 -.00001682  00000-0 -87663-4 0  9990,2 49458  53.2170 309.1324 0001011  91.1686 268.9422 15.08827615 91552,6917.918,95.438,540.483,539.084,0.0
49458.0,STARLINK-3156,PAYLOAD,2023-07-02 01:16:53,15.08832435,8.12e-05,53.2184,305.8617,90.1134,269.9951,-6.9399e-05,-1.392e-05,0.0,0 STARLINK-3156,1 49458U 21104BC  23183.05340267 -.00001392  00000-0 -69399-4 0  9999,2 49458  53.2184 305.8617 0000812  90.1134 269.9951 15.08832435 91666,6917.904,95.438,540.33,539.207,0.0
49458.0,STARLINK-3156,PAYLOAD,2023-07-02 15:35:21,15.08839108,7.76e-05,53.2175,303.1845,88.0438,272.0643,0.0001166,1.568e-05,0.0,0 STARLINK-3156,1 49458U 21104BC  23183.64955787  .00001568  00000-0  11660-3 0  9993,2 49458  53.2175 303.1845 0000776  88.0438 272.0643 15.08839108 91759,6917.883,95.438,540.285,539.211,0.0
49458.0,STARLINK-3156,PAYLOAD,2023-07-03 17:01:30,15.0887197,7.35e-05,53.2165,298.4261,86.1102,273.9974,0.00075248,0.00011719,0.0,0 STARLINK-3156,1 49458U 21104BC  23184.70938611  .00011719  00000-0  75248-3 0  9999,2 49458  53.2165 298.4261 0000735  86.1102 273.9974 15.08871970 91916,6917.783,95.436,540.156,539.139,0.0
49458.0,STARLINK-3156,PAYLOAD,2023-07-04 00:58:26,15.0886004,8.94e-05,53.2161,296.9398,88.4735,271.636,0.00019946,2.89e-05,0.0,0 STARLINK-3156,1 49458U 21104BC  23185.04058657  .00002890  00000-0  19946-3 0  9993,2 49458  53.2161 296.9398 0000894  88.4735 271.6360 15.08860040 91964,6917.819,95.436,540.303,539.066,0.0
49458.0,STARLINK-3156,PAYLOAD,2023-07-04 12:06:08,15.08849338,7.7e-05,53.2161,294.8585,94.612,265.496,4.8479e-05,4.84e-06,0.0,0 STARLINK-3156,1 49458U 21104BC  23185.50426493  .00000484  00000-0  48479-4 0  9992,2 49458  53.2161 294.8585 0000770  94.6120 265.4960 15.08849338 92032,6917.852,95.437,540.25,539.184,0.0
49458.0,STARLINK-3156,PAYLOAD,2023-07-05 15:07:42,15.08839895,7.74e-05,53.2164,289.8033,90.3726,269.7354,0.00031998,4.808e-05,0.0,0 STARLINK-3156,1 49458U 21104BC  23186.63035083  .00004808  00000-0  31998-3 0  9999,2 49458  53.2164 289.8033 0000774  90.3726 269.7354 15.08839895 92206,6917.881,95.438,540.281,539.21,0.0
49458.0,STARLINK-3156,PAYLOAD,2023-07-07 10:03:06,15.08846257,7.29e-05,53.216,281.7755,79.3189,280.7886,0.00018997,2.737e-05,0.0,0 STARLINK-3156,1 49458U 21104BC  23188.41882770  .00002737  00000-0  18997-3 0  9993,2 49458  53.2160 281.7755 0000729  79.3189 280.7886 15.08846257 92476,6917.861,95.437,540.231,539.222,0.0
49458.0,STARLINK-3156,PAYLOAD,2023-07-08 14:40:03,15.08842903,6.92e-05,53.2163,276.4234,87.6124,272.4947,3.8081e-05,3.19e-06,0.0,0 STARLINK-3156,1 49458U 21104BC  23189.61114671  .00000319  00000-0  38081-4 0  9995,2 49458  53.2163 276.4234 0000692  87.6124 272.4947 15.08842903 92652,6917.872,95.437,540.215,539.258,0.0
49458.0,STARLINK-3156,PAYLOAD,2023-07-09 04:58:31,15.08831816,6.4e-05,53.2155,273.7472,104.3805,255.7258,-7.4085e-05,-1.466e-05,0.0,0 STARLINK-3156,1 49458U 21104BC  23190.20731319 -.00001466  00000-0 -74085-4 0  9996,2 49458  53.2155 273.7472 0000640 104.3805 255.7258 15.08831816 92743,6917.905,95.438,540.213,539.328,0.0
49458.0,STARLINK-3156,PAYLOAD,2023-07-10 09:35:28,15.08841196,6.32e-05,53.2169,268.3937,91.9189,268.1876,0.00014089,1.955e-05,0.0,0 STARLINK-3156,1 49458U 21104BC  23191.39963242  .00001955  00000-0  14089-3 0  9997,2 49458  53.2169 268.3937 0000632  91.9189 268.1876 15.08841196 92927,6917.877,95.437,540.179,539.305,0.0
49458.0,STARLINK-3156,PAYLOAD,2023-07-11 04:40:06,15.08832917,6.36e-05,53.2158,264.824,75.6392,284.467,0.0001636,2.317e-05,0.0,0 STARLINK-3156,1 49458U 21104BC  23192.19451926  .00002317  00000-0  16360-3 0  9994,2 49458  53.2158 264.8240 0000636  75.6392 284.4670 15.08832917 93040,6917.902,95.438,540.207,539.327,0.0
